"{\n    \"CCSDS_OMM_VERS\": \"2.0\",\n    \"COMMENT\": \"GENERATED VIA SPACE-TRACK.ORG API\",\n    \"CREATION_DATE\": \"2025-08-31T11:35:43\",\n    \"ORIGINATOR\": \"18 SPCS\",\n    \"OBJECT_NAME\": \"GALILEO 20 (2C6)\",\n    \"OBJECT_ID\": \"2017-079B\",\n    \"CENTER_NAME\": \"EARTH\",\n    \"REF_FRAME\": \"TEME\",\n    \"TIME_SYSTEM\": \"UTC\",\n    \"MEAN_ELEMENT_THEORY\": \"SGP4\",\n    \"EPOCH\": \"2025-08-30T22:45:49.418496\",\n    \"MEAN_MOTION\": \"1.7047432044\",\n    \"ECCENTRICITY\": \"0.00047976744\",\n    \"INCLINATION\": \"55.170324\",\n    \"RA_OF_ASC_NODE\": \"229.49093\",\n    \"ARG_OF_PERICENTER\": \"277.24496\",\n    \"MEAN_ANOMALY\": \"82.69322\",\n    \"EPHEMERIS_TYPE\": \"0\",\n    \"CLASSIFICATION_TYPE\": \"U\",\n    \"NORAD_CAT_ID\": \"43056\",\n    \"ELEMENT_SET_NO\": \"999\",\n    \"REV_AT_EPOCH\": \"4805\",\n    \"BSTAR\": \"0\",\n    \"MEAN_MOTION_DOT\": \"0.00000058812\",\n    \"MEAN_MOTION_DDOT\": \"0\",\n    \"TLE_LINE0\": \"0 GALILEO 20 (2C6)\",\n    \"TLE_LINE1\": \"1 43056U 17079B   25242.94848864  .00000059  00000-0  00000-0 0  9992\",\n    \"TLE_LINE2\": \"2 43056  55.1703 229.4909 0004798 277.2450  82.6932  1.70474320 48056\",\n    \"SEMIMAJOR_AXIS\": \"29600.283\",\n    \"PERIOD\": \"844.702\",\n    \"APOAPSIS\": \"23236.349\",\n    \"PERIAPSIS\": \"23207.947\",\n    \"OBJECT_TYPE\": \"PAYLOAD\",\n    \"DECAYED\": \"0\"\n}"